NAVSTAR 59 (USA 192)    
1 29601U 06052A   25059.76708863  .00000048  00000+0  00000+0 0  9997
2 29601  55.0491 232.7811 0087893  84.8510 276.1264  2.00556213133918
NAVSTAR 60 (USA 196)    
1 32260U 07047A   25059.07887964  .00000036  00000+0  00000+0 0  9998
2 32260  53.7560  99.6492 0158907  79.8615 282.0147  2.00552235127307
NAVSTAR 61 (USA 199)    
1 32384U 07062A   25059.81695259  .00000000  00000+0  00000+0 0  9999
2 32384  55.4202 293.1341 0029133 153.5008 148.4711  2.00561268126019
NAVSTAR 62 (USA 201)    
1 32711U 08012A   25061.48262608  .00000030  00000+0  00000+0 0  9996
2 32711  54.4572 168.7532 0194564 241.6646 116.3690  2.00555063124293
NAVSTAR 63 (USA 203)    
1 34661U 09014A   25056.15535894  .00000066  00000+0  00000+0 0  9992
2 34661  54.5953 229.7900 0138317  59.9121 120.1308  2.00566730116712
NAVSTAR 64 (USA 206)    
1 35752U 09043A   25060.71984883 -.00000033  00000+0  00000+0 0  9994
2 35752  55.8844  46.0678 0053718  74.8599 105.6929  2.00553917113880
NAVSTAR 65 (USA 213)    
1 36585U 10022A   25061.30739186  .00000049  00000+0  00000+0 0  9994
2 36585  54.3681 227.5796 0121708  63.6408 300.6457  2.00564399108136
NAVSTAR 67 (USA 239)    
1 38833U 12053A   25060.66830354  .00000028  00000+0  00000+0 0  9992
2 38833  53.5283 162.9446 0163160  59.8462 301.7739  2.00561545 89966
NAVSTAR 68 (USA 242)    
1 39166U 13023A   25061.02937071 -.00000001  00000+0  00000+0 0  9997
2 39166  54.8889 288.1620 0132556  46.6343 314.5187  2.00561753 86400
NAVSTAR 69 (USA 248)    
1 39533U 14008A   25061.02852215  .00000029  00000+0  00000+0 0  9994
2 39533  53.6079 168.5676 0076138 222.5740 136.8396  2.00556870 80211
NAVSTAR 70 (USA 251)    
1 39741U 14026A   25061.31359882 -.00000081  00000+0  00000+0 0  9998
2 39741  56.6735 349.8616 0036166 319.1557  40.5924  2.00549972 79073
NAVSTAR 71 (USA 256)    
1 40105U 14045A   25061.39401773  .00000025  00000+0  00000+0 0  9997
2 40105  55.0567 107.2884 0028345 118.4937 241.8730  2.00553762 76610
