[
    {
        "OBJECT_NAME": "NAVSTAR 59 (USA 192)",
        "OBJECT_ID": "2006-052A",
        "EPOCH": "2025-02-28T18:24:36.457632",
        "MEAN_MOTION": 2.00556213,
        "ECCENTRICITY": 0.0087893,
        "INCLINATION": 55.0491,
        "RA_OF_ASC_NODE": 232.7811,
        "ARG_OF_PERICENTER": 84.851,
        "MEAN_ANOMALY": 276.1264,
        "EPHEMERIS_TYPE": 0,
        "CLASSIFICATION_TYPE": "U",
        "NORAD_CAT_ID": 29601,
        "ELEMENT_SET_NO": 999,
        "REV_AT_EPOCH": 13391,
        "BSTAR": 0,
        "MEAN_MOTION_DOT": 4.8e-07,
        "MEAN_MOTION_DDOT": 0
    },
    {
        "OBJECT_NAME": "NAVSTAR 60 (USA 196)",
        "OBJECT_ID": "2007-047A",
        "EPOCH": "2025-02-28T01:53:35.200896",
        "MEAN_MOTION": 2.00552235,
        "ECCENTRICITY": 0.0158907,
        "INCLINATION": 53.756,
        "RA_OF_ASC_NODE": 99.6492,
        "ARG_OF_PERICENTER": 79.8615,
        "MEAN_ANOMALY": 282.0147,
        "EPHEMERIS_TYPE": 0,
        "CLASSIFICATION_TYPE": "U",
        "NORAD_CAT_ID": 32260,
        "ELEMENT_SET_NO": 999,
        "REV_AT_EPOCH": 12730,
        "BSTAR": 0,
        "MEAN_MOTION_DOT": 3.6e-07,
        "MEAN_MOTION_DDOT": 0
    },
    {
        "OBJECT_NAME": "NAVSTAR 61 (USA 199)",
        "OBJECT_ID": "2007-062A",
        "EPOCH": "2025-02-28T19:36:24.703776",
        "MEAN_MOTION": 2.00561268,
        "ECCENTRICITY": 0.0029133,
        "INCLINATION": 55.4202,
        "RA_OF_ASC_NODE": 293.1341,
        "ARG_OF_PERICENTER": 153.5008,
        "MEAN_ANOMALY": 148.4711,
        "EPHEMERIS_TYPE": 0,
        "CLASSIFICATION_TYPE": "U",
        "NORAD_CAT_ID": 32384,
        "ELEMENT_SET_NO": 999,
        "REV_AT_EPOCH": 12601,
        "BSTAR": 0,
        "MEAN_MOTION_DOT": 0,
        "MEAN_MOTION_DDOT": 0
    },
    {
        "OBJECT_NAME": "NAVSTAR 62 (USA 201)",
        "OBJECT_ID": "2008-012A",
        "EPOCH": "2025-03-02T11:34:58.893312",
        "MEAN_MOTION": 2.00555063,
        "ECCENTRICITY": 0.0194564,
        "INCLINATION": 54.4572,
        "RA_OF_ASC_NODE": 168.7532,
        "ARG_OF_PERICENTER": 241.6646,
        "MEAN_ANOMALY": 116.369,
        "EPHEMERIS_TYPE": 0,
        "CLASSIFICATION_TYPE": "U",
        "NORAD_CAT_ID": 32711,
        "ELEMENT_SET_NO": 999,
        "REV_AT_EPOCH": 12429,
        "BSTAR": 0,
        "MEAN_MOTION_DOT": 3e-07,
        "MEAN_MOTION_DDOT": 0
    },
    {
        "OBJECT_NAME": "NAVSTAR 63 (USA 203)",
        "OBJECT_ID": "2009-014A",
        "EPOCH": "2025-02-25T03:43:43.012416",
        "MEAN_MOTION": 2.0056673,
        "ECCENTRICITY": 0.0138317,
        "INCLINATION": 54.5953,
        "RA_OF_ASC_NODE": 229.79,
        "ARG_OF_PERICENTER": 59.9121,
        "MEAN_ANOMALY": 120.1308,
        "EPHEMERIS_TYPE": 0,
        "CLASSIFICATION_TYPE": "U",
        "NORAD_CAT_ID": 34661,
        "ELEMENT_SET_NO": 999,
        "REV_AT_EPOCH": 11671,
        "BSTAR": 0,
        "MEAN_MOTION_DOT": 6.6e-07,
        "MEAN_MOTION_DDOT": 0
    },
    {
        "OBJECT_NAME": "NAVSTAR 64 (USA 206)",
        "OBJECT_ID": "2009-043A",
        "EPOCH": "2025-03-01T17:16:34.938912",
        "MEAN_MOTION": 2.00553917,
        "ECCENTRICITY": 0.0053718,
        "INCLINATION": 55.8844,
        "RA_OF_ASC_NODE": 46.0678,
        "ARG_OF_PERICENTER": 74.8599,
        "MEAN_ANOMALY": 105.6929,
        "EPHEMERIS_TYPE": 0,
        "CLASSIFICATION_TYPE": "U",
        "NORAD_CAT_ID": 35752,
        "ELEMENT_SET_NO": 999,
        "REV_AT_EPOCH": 11388,
        "BSTAR": 0,
        "MEAN_MOTION_DOT": -3.3e-07,
        "MEAN_MOTION_DDOT": 0
    },
    {
        "OBJECT_NAME": "NAVSTAR 65 (USA 213)",
        "OBJECT_ID": "2010-022A",
        "EPOCH": "2025-03-02T07:22:38.656704",
        "MEAN_MOTION": 2.00564399,
        "ECCENTRICITY": 0.0121708,
        "INCLINATION": 54.3681,
        "RA_OF_ASC_NODE": 227.5796,
        "ARG_OF_PERICENTER": 63.6408,
        "MEAN_ANOMALY": 300.6457,
        "EPHEMERIS_TYPE": 0,
        "CLASSIFICATION_TYPE": "U",
        "NORAD_CAT_ID": 36585,
        "ELEMENT_SET_NO": 999,
        "REV_AT_EPOCH": 10813,
        "BSTAR": 0,
        "MEAN_MOTION_DOT": 4.9e-07,
        "MEAN_MOTION_DDOT": 0
    },
    {
        "OBJECT_NAME": "NAVSTAR 67 (USA 239)",
        "OBJECT_ID": "2012-053A",
        "EPOCH": "2025-03-01T16:02:21.425856",
        "MEAN_MOTION": 2.00561545,
        "ECCENTRICITY": 0.016316,
        "INCLINATION": 53.5283,
        "RA_OF_ASC_NODE": 162.9446,
        "ARG_OF_PERICENTER": 59.8462,
        "MEAN_ANOMALY": 301.7739,
        "EPHEMERIS_TYPE": 0,
        "CLASSIFICATION_TYPE": "U",
        "NORAD_CAT_ID": 38833,
        "ELEMENT_SET_NO": 999,
        "REV_AT_EPOCH": 8996,
        "BSTAR": 0,
        "MEAN_MOTION_DOT": 2.8e-07,
        "MEAN_MOTION_DDOT": 0
    },
    {
        "OBJECT_NAME": "NAVSTAR 68 (USA 242)",
        "OBJECT_ID": "2013-023A",
        "EPOCH": "2025-03-02T00:42:17.629344",
        "MEAN_MOTION": 2.00561753,
        "ECCENTRICITY": 0.0132556,
        "INCLINATION": 54.8889,
        "RA_OF_ASC_NODE": 288.162,
        "ARG_OF_PERICENTER": 46.6343,
        "MEAN_ANOMALY": 314.5187,
        "EPHEMERIS_TYPE": 0,
        "CLASSIFICATION_TYPE": "U",
        "NORAD_CAT_ID": 39166,
        "ELEMENT_SET_NO": 999,
        "REV_AT_EPOCH": 8640,
        "BSTAR": 0,
        "MEAN_MOTION_DOT": -1e-08,
        "MEAN_MOTION_DDOT": 0
    },
    {
        "OBJECT_NAME": "NAVSTAR 69 (USA 248)",
        "OBJECT_ID": "2014-008A",
        "EPOCH": "2025-03-02T00:41:04.313760",
        "MEAN_MOTION": 2.0055687,
        "ECCENTRICITY": 0.0076138,
        "INCLINATION": 53.6079,
        "RA_OF_ASC_NODE": 168.5676,
        "ARG_OF_PERICENTER": 222.574,
        "MEAN_ANOMALY": 136.8396,
        "EPHEMERIS_TYPE": 0,
        "CLASSIFICATION_TYPE": "U",
        "NORAD_CAT_ID": 39533,
        "ELEMENT_SET_NO": 999,
        "REV_AT_EPOCH": 8021,
        "BSTAR": 0,
        "MEAN_MOTION_DOT": 2.9e-07,
        "MEAN_MOTION_DDOT": 0
    },
    {
        "OBJECT_NAME": "NAVSTAR 70 (USA 251)",
        "OBJECT_ID": "2014-026A",
        "EPOCH": "2025-03-02T07:31:34.938048",
        "MEAN_MOTION": 2.00549972,
        "ECCENTRICITY": 0.0036166,
        "INCLINATION": 56.6735,
        "RA_OF_ASC_NODE": 349.8616,
        "ARG_OF_PERICENTER": 319.1557,
        "MEAN_ANOMALY": 40.5924,
        "EPHEMERIS_TYPE": 0,
        "CLASSIFICATION_TYPE": "U",
        "NORAD_CAT_ID": 39741,
        "ELEMENT_SET_NO": 999,
        "REV_AT_EPOCH": 7907,
        "BSTAR": 0,
        "MEAN_MOTION_DOT": -8.1e-07,
        "MEAN_MOTION_DDOT": 0
    },
    {
        "OBJECT_NAME": "NAVSTAR 71 (USA 256)",
        "OBJECT_ID": "2014-045A",
        "EPOCH": "2025-03-02T09:27:23.131872",
        "MEAN_MOTION": 2.00553762,
        "ECCENTRICITY": 0.0028345,
        "INCLINATION": 55.0567,
        "RA_OF_ASC_NODE": 107.2884,
        "ARG_OF_PERICENTER": 118.4937,
        "MEAN_ANOMALY": 241.873,
        "EPHEMERIS_TYPE": 0,
        "CLASSIFICATION_TYPE": "U",
        "NORAD_CAT_ID": 40105,
        "ELEMENT_SET_NO": 999,
        "REV_AT_EPOCH": 7661,
        "BSTAR": 0,
        "MEAN_MOTION_DOT": 2.5e-07,
        "MEAN_MOTION_DDOT": 0
    }
]